{
  "norad_id": 53003,
  "name": "STARLINK-4255",
  "history": [
    {
      "epoch": "2026-03-28T11:25:10.089408Z",
      "apogee_km": 540.6824302086025,
      "perigee_km": 538.8837709824475,
      "latitude_deg": 5.19757324665339e-06,
      "longitude_deg": 12.598247964396132,
      "height_km": 540.6343527490035,
      "semi_major_axis_km": 6917.920100595525,
      "eccentricity": 0.00013,
      "inclination_deg": 53.2203,
      "raan_deg": 9.786,
      "arg_perigee_deg": 87.1419,
      "mean_anomaly_deg": 272.9722,
      "mean_motion_rev_day": 15.08827008
    },
    {
      "epoch": "2026-03-29T01:43:37.845984Z",
      "apogee_km": 540.5685261043773,
      "perigee_km": 538.9193032943131,
      "latitude_deg": -6.562978211365292e-06,
      "longitude_deg": 154.7182898762413,
      "height_km": 540.5599594367736,
      "semi_major_axis_km": 6917.880914699344,
      "eccentricity": 0.0001192,
      "inclination_deg": 53.2192,
      "raan_deg": 7.1093,
      "arg_perigee_deg": 84.4261,
      "mean_anomaly_deg": 275.6867,
      "mean_motion_rev_day": 15.08839828
    },
    {
      "epoch": "2026-03-30T04:45:11.132064Z",
      "apogee_km": 540.5845382888747,
      "perigee_km": 538.848572117733,
      "latitude_deg": 1.0752650735276131e-05,
      "longitude_deg": 103.16479665130018,
      "height_km": 540.5915829311081,
      "semi_major_axis_km": 6917.853555203304,
      "eccentricity": 0.00012547,
      "inclination_deg": 53.2174,
      "raan_deg": 2.0544,
      "arg_perigee_deg": 88.6251,
      "mean_anomaly_deg": 271.4885,
      "mean_motion_rev_day": 15.08848779
    }
  ]
}